IRIDIUM 57              
1 25273U 98019B   24316.51796266  .00001408  00000+0  48223-3 0  9998
2 25273  86.3983 236.3745 0002333  83.2250 276.9212 14.35573974393551
IRIDIUM 63              
1 25286U 98021B   24316.55196128  .00001430  00000+0  48417-3 0  9990
2 25286  86.4021 173.3565 0001851  84.2412 275.8996 14.36179333392608
IRIDIUM 69              
1 25319U 98026A   24316.53150136  .00001903  00000+0  59218-3 0  9995
2 25319  86.4030 187.2895 0003865  50.7238 309.4303 14.40519031391722
IRIDIUM 71              
1 25320U 98026B   24316.57075206  .00001544  00000+0  47675-3 0  9990
2 25320  86.4023 182.0108 0004230  83.9026 276.2655 14.40760635392254
IRIDIUM 73              
1 25344U 98032C   24315.93424851  .00002782  00000+0  69697-3 0  9999
2 25344  86.4406 139.4878 0002394  71.5103 288.6362 14.51119947398909
IRIDIUM 82              
1 25467U 98051A   24316.16446383  .00049178  00000+0  20123-2 0  9996
2 25467  86.3774 215.6536 0113463  38.4292 322.4961 15.18320077390727
